{
  "type": "FeatureCollection",
  "features": [
    {
      "type": "Feature",
      "properties": {
        "norad_id": 67117,
        "name": "STARLINK-35674",
        "group": "last-30-days",
        "lat": -41.22624848616608,
        "lon": -171.53559653238662,
        "alt_km": 293.7548400274454,
        "timestamp": "2025-12-22T05:49:02.189843+00:00",
        "meta_object_name": "STARLINK-35674",
        "meta_object_id": "2025-299R",
        "meta_epoch": "2025-12-21T20:00:01.999008",
        "meta_mean_motion": 15.94268897,
        "meta_eccentricity": 0.0002066,
        "meta_inclination": 42.9992,
        "meta_ra_of_asc_node": 261.1323,
        "meta_arg_of_pericenter": 266.6651,
        "meta_mean_anomaly": 188.0921,
        "meta_ephemeris_type": 0,
        "meta_classification_type": "U",
        "meta_norad_cat_id": 67117,
        "meta_element_set_no": 999,
        "meta_rev_at_epoch": 206,
        "meta_bstar": -0.0017773,
        "meta_mean_motion_dot": -0.00692012,
        "meta_mean_motion_ddot": 0.00015835,
        "tle_line1": "1 67117U 25299R   25355.83335647 -.00692012  15835-3 -17773-2 0  9992",
        "tle_line2": "2 67117  42.9992 261.1323 0002066 266.6651 188.0921 15.94268897  2069"
      },
      "geometry": {
        "type": "Point",
        "coordinates": [
          -171.53559653238662,
          -41.22624848616608
        ]
      }
    },
    {
      "type": "Feature",
      "properties": {
        "norad_id": 67118,
        "name": "STARLINK-35701",
        "group": "last-30-days",
        "lat": -40.80992298743051,
        "lon": -169.34761796279793,
        "alt_km": 293.641042937943,
        "timestamp": "2025-12-22T05:49:02.189853+00:00",
        "meta_object_name": "STARLINK-35701",
        "meta_object_id": "2025-299S",
        "meta_epoch": "2025-12-21T20:00:01.999008",
        "meta_mean_motion": 15.94378185,
        "meta_eccentricity": 0.0002232,
        "meta_inclination": 42.9992,
        "meta_ra_of_asc_node": 261.1283,
        "meta_arg_of_pericenter": 264.559,
        "meta_mean_anomaly": 191.8227,
        "meta_ephemeris_type": 0,
        "meta_classification_type": "U",
        "meta_norad_cat_id": 67118,
        "meta_element_set_no": 999,
        "meta_rev_at_epoch": 222,
        "meta_bstar": -0.0021148,
        "meta_mean_motion_dot": -0.00827161,
        "meta_mean_motion_ddot": 0.00021898,
        "tle_line1": "1 67118U 25299S   25355.83335647 -.00827161  21898-3 -21148-2 0  9995",
        "tle_line2": "2 67118  42.9992 261.1283 0002232 264.5590 191.8227 15.94378185  2220"
      },
      "geometry": {
        "type": "Point",
        "coordinates": [
          -169.34761796279793,
          -40.80992298743051
        ]
      }
    },
    {
      "type": "Feature",
      "properties": {
        "norad_id": 67119,
        "name": "STARLINK-36179",
        "group": "last-30-days",
        "lat": -40.125667455283136,
        "lon": -166.19215006535114,
        "alt_km": 293.88758200385655,
        "timestamp": "2025-12-22T05:49:02.189863+00:00",
        "meta_object_name": "STARLINK-36179",
        "meta_object_id": "2025-299T",
        "meta_epoch": "2025-12-21T20:00:01.999008",
        "meta_mean_motion": 15.94547926,
        "meta_eccentricity": 0.0001776,
        "meta_inclination": 42.9991,
        "meta_ra_of_asc_node": 261.1221,
        "meta_arg_of_pericenter": 265.2108,
        "meta_mean_anomaly": 193.5498,
        "meta_ephemeris_type": 0,
        "meta_classification_type": "U",
        "meta_norad_cat_id": 67119,
        "meta_element_set_no": 999,
        "meta_rev_at_epoch": 227,
        "meta_bstar": -0.0026328,
        "meta_mean_motion_dot": -0.01037034,
        "meta_mean_motion_ddot": 0.00033116,
        "tle_line1": "1 67119U 25299T   25355.83335647 -.01037034  33116-3 -26328-2 0  9990",
        "tle_line2": "2 67119  42.9991 261.1221 0001776 265.2108 193.5498 15.94547926  2272"
      },
      "geometry": {
        "type": "Point",
        "coordinates": [
          -166.19215006535114,
          -40.125667455283136
        ]
      }
    },
    {
      "type": "Feature",
      "properties": {
        "norad_id": 67120,
        "name": "STARLINK-36217",
        "group": "last-30-days",
        "lat": -40.444720979404785,
        "lon": -167.60586915689004,
        "alt_km": 293.5620085905375,
        "timestamp": "2025-12-22T05:49:02.189873+00:00",
        "meta_object_name": "STARLINK-36217",
        "meta_object_id": "2025-299U",
        "meta_epoch": "2025-12-21T20:00:01.999008",
        "meta_mean_motion": 15.94473775,
        "meta_eccentricity": 0.0002348,
        "meta_inclination": 42.9992,
        "meta_ra_of_asc_node": 261.1251,
        "meta_arg_of_pericenter": 264.7152,
        "meta_mean_anomaly": 192.9751,
        "meta_ephemeris_type": 0,
        "meta_classification_type": "U",
        "meta_norad_cat_id": 67120,
        "meta_element_set_no": 999,
        "meta_rev_at_epoch": 227,
        "meta_bstar": -0.0024289,
        "meta_mean_motion_dot": -0.00953758,
        "meta_mean_motion_ddot": 0.00028406,
        "tle_line1": "1 67120U 25299U   25355.83335647 -.00953758  28406-3 -24289-2 0  9991",
        "tle_line2": "2 67120  42.9992 261.1251 0002348 264.7152 192.9751 15.94473775  2272"
      },
      "geometry": {
        "type": "Point",
        "coordinates": [
          -167.60586915689004,
          -40.444720979404785
        ]
      }
    },
    {
      "type": "Feature",
      "properties": {
        "norad_id": 67121,
        "name": "STARLINK-36124",
        "group": "last-30-days",
        "lat": -39.07858631596546,
        "lon": -162.07220682639743,
        "alt_km": 293.60100260055697,
        "timestamp": "2025-12-22T05:49:02.189885+00:00",
        "meta_object_name": "STARLINK-36124",
        "meta_object_id": "2025-299V",
        "meta_epoch": "2025-12-21T20:00:01.999008",
        "meta_mean_motion": 15.9479165,
        "meta_eccentricity": 0.0002159,
        "meta_inclination": 42.9992,
        "meta_ra_of_asc_node": 261.1141,
        "meta_arg_of_pericenter": 269.3594,
        "meta_mean_anomaly": 192.5906,
        "meta_ephemeris_type": 0,
        "meta_classification_type": "U",
        "meta_norad_cat_id": 67121,
        "meta_element_set_no": 999,
        "meta_rev_at_epoch": 227,
        "meta_bstar": -0.0034474,
        "meta_mean_motion_dot": -0.0137182,
        "meta_mean_motion_ddot": 0.00055366,
        "tle_line1": "1 67121U 25299V   25355.83335647 -.01371820  55366-3 -34474-2 0  9999",
        "tle_line2": "2 67121  42.9992 261.1141 0002159 269.3594 192.5906 15.94791650  2275"
      },
      "geometry": {
        "type": "Point",
        "coordinates": [
          -162.07220682639743,
          -39.07858631596546
        ]
      }
    },
    {
      "type": "Feature",
      "properties": {
        "norad_id": 67122,
        "name": "STARLINK-36188",
        "group": "last-30-days",
        "lat": -38.60189114462894,
        "lon": -160.3986669894351,
        "alt_km": 293.7170590772812,
        "timestamp": "2025-12-22T05:49:02.189895+00:00",
        "meta_object_name": "STARLINK-36188",
        "meta_object_id": "2025-299W",
        "meta_epoch": "2025-12-21T20:00:01.999008",
        "meta_mean_motion": 15.94872267,
        "meta_eccentricity": 0.0001863,
        "meta_inclination": 42.9994,
        "meta_ra_of_asc_node": 261.111,
        "meta_arg_of_pericenter": 262.9994,
        "meta_mean_anomaly": 200.2437,
        "meta_ephemeris_type": 0,
        "meta_classification_type": "U",
        "meta_norad_cat_id": 67122,
        "meta_element_set_no": 999,
        "meta_rev_at_epoch": 227,
        "meta_bstar": -0.0035272,
        "meta_mean_motion_dot": -0.01409141,
        "meta_mean_motion_ddot": 0.00058205,
        "tle_line1": "1 67122U 25299W   25355.83335647 -.01409141  58205-3 -35272-2 0  9990",
        "tle_line2": "2 67122  42.9994 261.1110 0001863 262.9994 200.2437 15.94872267  2278"
      },
      "geometry": {
        "type": "Point",
        "coordinates": [
          -160.3986669894351,
          -38.60189114462894
        ]
      }
    },
    {
      "type": "Feature",
      "properties": {
        "norad_id": 67123,
        "name": "STARLINK-36151",
        "group": "last-30-days",
        "lat": -39.63113748386363,
        "lon": -164.1575529838926,
        "alt_km": 293.69042247362995,
        "timestamp": "2025-12-22T05:49:02.189905+00:00",
        "meta_object_name": "STARLINK-36151",
        "meta_object_id": "2025-299X",
        "meta_epoch": "2025-12-21T20:00:01.999008",
        "meta_mean_motion": 15.94654077,
        "meta_eccentricity": 0.0001953,
        "meta_inclination": 42.9994,
        "meta_ra_of_asc_node": 261.1185,
        "meta_arg_of_pericenter": 272.5837,
        "meta_mean_anomaly": 187.7461,
        "meta_ephemeris_type": 0,
        "meta_classification_type": "U",
        "meta_norad_cat_id": 67123,
        "meta_element_set_no": 999,
        "meta_rev_at_epoch": 227,
        "meta_bstar": -0.0029683,
        "meta_mean_motion_dot": -0.01174459,
        "meta_mean_motion_ddot": 0.00041611,
        "tle_line1": "1 67123U 25299X   25355.83335647 -.01174459  41611-3 -29683-2 0  9994",
        "tle_line2": "2 67123  42.9994 261.1185 0001953 272.5837 187.7461 15.94654077  2277"
      },
      "geometry": {
        "type": "Point",
        "coordinates": [
          -164.1575529838926,
          -39.63113748386363
        ]
      }
    }
  ]
}